{"type": "FeatureCollection", "features": [ {"type": "Feature", "properties": {"norad_id": 66052, "name": "HRC MONOBLOCK CAMERA", "group": "stations", "lat": -51.606025876750174, "lon": 7.890050974549827, "alt_km": 406.413402726972, "timestamp": "2025-12-21T16:47:53.483107+00:00", "meta": {"OBJECT_NAME": "HRC MONOBLOCK CAMERA", "OBJECT_ID": "1998-067XR", "EPOCH": "2025-12-21T12:33:12.305376", "MEAN_MOTION": 15.54715568, "ECCENTRICITY": 0.0002361, "INCLINATION": 51.631, "RA_OF_ASC_NODE": 97.6939, "ARG_OF_PERICENTER": 225.6973, "MEAN_ANOMALY": 134.3824, "EPHEMERIS_TYPE": 0, "CLASSIFICATION_TYPE": "U", "NORAD_CAT_ID": 66052, "ELEMENT_SET_NO": 999, "REV_AT_EPOCH": 1020, "BSTAR": 0.00046332, "MEAN_MOTION_DOT": 0.00030976, "MEAN_MOTION_DDOT": 0}, "tle": {"line1": "1 66052U 98067XR  25355.52305909  .00030976  00000+0  46332-3 0  9997", "line2": "2 66052  51.6310  97.6939 0002361 225.6973 134.3824 15.54715568 10201"}}, "geometry": {"type": "Point", "coordinates": [7.890050974549827, -51.606025876750174]}}, {"type": "Feature", "properties": {"norad_id": 66174, "name": "HTV-X1", "group": "stations", "lat": 6.157185247418023, "lon": 103.00814197437504, "alt_km": 417.34270465509053, "timestamp": "2025-12-21T16:47:53.483117+00:00", "meta": {"OBJECT_NAME": "HTV-X1", "OBJECT_ID": "2025-241A", "EPOCH": "2025-12-21T04:22:59.119680", "MEAN_MOTION": 15.49696285, "ECCENTRICITY": 0.00031756, "INCLINATION": 51.6324, "RA_OF_ASC_NODE": 100.6685, "ARG_OF_PERICENTER": 279.9061, "MEAN_ANOMALY": 80.1569, "EPHEMERIS_TYPE": 0, "CLASSIFICATION_TYPE": "U", "NORAD_CAT_ID": 66174, "ELEMENT_SET_NO": 999, "REV_AT_EPOCH": 51, "BSTAR": 0.00015703459, "MEAN_MOTION_DOT": 8.423e-05, "MEAN_MOTION_DDOT": 0}, "tle": {"line1": "1 66174U 25241A   25355.18262870  .00008423  00000+0  15703-3 0  9997", "line2": "2 66174  51.6324 100.6685 0003175 279.9061  80.1569 15.49696285   513"}}, "geometry": {"type": "Point", "coordinates": [103.00814197437504, 6.157185247418023]}}, {"type": "Feature", "properties": {"norad_id": 66515, "name": "SZ-21 MODULE", "group": "stations", "lat": 33.63920573753497, "lon": 92.49719457416833, "alt_km": 377.303388700132, "timestamp": "2025-12-21T16:47:53.483127+00:00", "meta": {"OBJECT_NAME": "SZ-21 MODULE", "OBJECT_ID": "2025-246C", "EPOCH": "2025-12-21T02:28:16.865472", "MEAN_MOTION": 15.62895195, "ECCENTRICITY": 0.00053926, "INCLINATION": 41.4772, "RA_OF_ASC_NODE": 325.0132, "ARG_OF_PERICENTER": 304.7401, "MEAN_ANOMALY": 55.2931, "EPHEMERIS_TYPE": 0, "CLASSIFICATION_TYPE": "U", "NORAD_CAT_ID": 66515, "ELEMENT_SET_NO": 999, "REV_AT_EPOCH": 575, "BSTAR": 0.00023274036, "MEAN_MOTION_DOT": 0.00021377, "MEAN_MOTION_DDOT": 0}, "tle": {"line1": "1 66515U 25246C   25355.10297298  .00021377  00000+0  23274-3 0  9990", "line2": "2 66515  41.4772 325.0132 0005392 304.7401  55.2931 15.62895195  5757"}}, "geometry": {"type": "Point", "coordinates": [92.49719457416833, 33.63920573753497]}}, {"type": "Feature", "properties": {"norad_id": 66645, "name": "SHENZHOU-22", "group": "stations", "lat": 39.356516017182, "lon": 74.06264437853507, "alt_km": 377.30542020626217, "timestamp": "2025-12-21T16:47:53.483137+00:00", "meta": {"OBJECT_NAME": "SHENZHOU-22", "OBJECT_ID": "2025-272A", "EPOCH": "2025-12-21T05:35:06.684000", "MEAN_MOTION": 15.59524435, "ECCENTRICITY": 0.00077499, "INCLINATION": 41.4687, "RA_OF_ASC_NODE": 325.1329, "ARG_OF_PERICENTER": 105.4926, "MEAN_ANOMALY": 254.6769, "EPHEMERIS_TYPE": 0, "CLASSIFICATION_TYPE": "U", "NORAD_CAT_ID": 66645, "ELEMENT_SET_NO": 999, "REV_AT_EPOCH": 26519, "BSTAR": 0.00019872404, "MEAN_MOTION_DOT": 0.00015946, "MEAN_MOTION_DDOT": 0}, "tle": {"line1": "1 66645U 25272A   25355.23271625  .00015946  00000+0  19872-3 0  9997", "line2": "2 66645  41.4687 325.1329 0007749 105.4926 254.6769 15.59524435265193"}}, "geometry": {"type": "Point", "coordinates": [74.06264437853507, 39.356516017182]}}, {"type": "Feature", "properties": {"norad_id": 66664, "name": "SOYUZ-MS 28", "group": "stations", "lat": 6.1575060984778185, "lon": 103.00899688297962, "alt_km": 417.34312126208715, "timestamp": "2025-12-21T16:47:53.483146+00:00", "meta": {"OBJECT_NAME": "SOYUZ-MS 28", "OBJECT_ID": "2025-275A", "EPOCH": "2025-12-21T10:34:25.499424", "MEAN_MOTION": 15.49701473, "ECCENTRICITY": 0.0003157, "INCLINATION": 51.6323, "RA_OF_ASC_NODE": 99.391, "ARG_OF_PERICENTER": 280.7962, "MEAN_ANOMALY": 79.2671, "EPHEMERIS_TYPE": 0, "CLASSIFICATION_TYPE": "U", "NORAD_CAT_ID": 66664, "ELEMENT_SET_NO": 999, "REV_AT_EPOCH": 379, "BSTAR": 0.00016671, "MEAN_MOTION_DOT": 8.972e-05, "MEAN_MOTION_DDOT": 0}, "tle": {"line1": "1 66664U 25275A   25355.44057291  .00008972  00000+0  16671-3 0  9990", "line2": "2 66664  51.6323  99.3910 0003157 280.7962  79.2671 15.49701473  3793"}}, "geometry": {"type": "Point", "coordinates": [103.00899688297962, 6.1575060984778185]}}, {"type": "Feature", "properties": {"norad_id": 66906, "name": "1998-067XS", "group": "stations", "lat": 49.33520667513456, "lon": 165.22062125502765, "alt_km": 408.915169521978, "timestamp": "2025-12-21T16:47:53.483156+00:00", "meta": {"OBJECT_NAME": "1998-067XS", "OBJECT_ID": "1998-067XS", "EPOCH": "2025-12-21T11:50:07.454976", "MEAN_MOTION": 15.51010585, "ECCENTRICITY": 0.0002953, "INCLINATION": 51.6316, "RA_OF_ASC_NODE": 98.9926, "ARG_OF_PERICENTER": 243.0961, "MEAN_ANOMALY": 116.9727, "EPHEMERIS_TYPE": 0, "CLASSIFICATION_TYPE": "U", "NORAD_CAT_ID": 66906, "ELEMENT_SET_NO": 999, "REV_AT_EPOCH": 297, "BSTAR": 0.00042362, "MEAN_MOTION_DOT": 0.00024678, "MEAN_MOTION_DDOT": 0}, "tle": {"line1": "1 66906U 98067XS  25355.49314184  .00024678  00000+0  42362-3 0  9997", "line2": "2 66906  51.6316  98.9926 0002953 243.0961 116.9727 15.51010585  2970"}}, "geometry": {"type": "Point", "coordinates": [165.22062125502765, 49.33520667513456]}}, {"type": "Feature", "properties": {"norad_id": 66907, "name": "1998-067XT", "group": "stations", "lat": 37.40007526751322, "lon": -119.4274573519914, "alt_km": 406.784307322504, "timestamp": "2025-12-21T16:47:53.483167+00:00", "meta": {"OBJECT_NAME": "1998-067XT", "OBJECT_ID": "1998-067XT", "EPOCH": "2025-12-21T11:36:33.971328", "MEAN_MOTION": 15.52463027, "ECCENTRICITY": 0.0003879, "INCLINATION": 51.6316, "RA_OF_ASC_NODE": 98.9297, "ARG_OF_PERICENTER": 279.7244, "MEAN_ANOMALY": 80.3308, "EPHEMERIS_TYPE": 0, "CLASSIFICATION_TYPE": "U", "NORAD_CAT_ID": 66907, "ELEMENT_SET_NO": 999, "REV_AT_EPOCH": 297, "BSTAR": 0.00087766, "MEAN_MOTION_DOT": 0.00054612, "MEAN_MOTION_DDOT": 0}, "tle": {"line1": "1 66907U 98067XT  25355.48372652  .00054612  00000+0  87766-3 0  9999", "line2": "2 66907  51.6316  98.9297 0003879 279.7244  80.3308 15.52463027  2973"}}, "geometry": {"type": "Point", "coordinates": [-119.4274573519914, 37.40007526751322]}}, {"type": "Feature", "properties": {"norad_id": 66908, "name": "1998-067XU", "group": "stations", "lat": 34.270368030750376, "lon": -114.8306586965205, "alt_km": 406.8653839924227, "timestamp": "2025-12-21T16:47:53.483177+00:00", "meta": {"OBJECT_NAME": "1998-067XU", "OBJECT_ID": "1998-067XU", "EPOCH": "2025-12-21T00:46:29.963136", "MEAN_MOTION": 15.52510982, "ECCENTRICITY": 0.00039042, "INCLINATION": 51.6311, "RA_OF_ASC_NODE": 101.1653, "ARG_OF_PERICENTER": 276.2494, "MEAN_ANOMALY": 83.8051, "EPHEMERIS_TYPE": 0, "CLASSIFICATION_TYPE": "U", "NORAD_CAT_ID": 66908, "ELEMENT_SET_NO": 999, "REV_AT_EPOCH": 290, "BSTAR": 0.00080289362, "MEAN_MOTION_DOT": 0.00049977, "MEAN_MOTION_DDOT": 0}, "tle": {"line1": "1 66908U 98067XU  25355.03229124  .00049977  00000+0  80289-3 0  9997", "line2": "2 66908  51.6311 101.1653 0003904 276.2494  83.8051 15.52510982  2909"}}, "geometry": {"type": "Point", "coordinates": [-114.8306586965205, 34.270368030750376]}}, {"type": "Feature", "properties": {"norad_id": 66909, "name": "SILVERSAT", "group": "stations", "lat": 29.87414251526864, "lon": -109.24168397003444, "alt_km": 406.93323905770467, "timestamp": "2025-12-21T16:47:53.483189+00:00", "meta": {"OBJECT_NAME": "SILVERSAT", "OBJECT_ID": "1998-067XV", "EPOCH": "2025-12-21T00:44:56.475744", "MEAN_MOTION": 15.52677939, "ECCENTRICITY": 0.0003815, "INCLINATION": 51.6312, "RA_OF_ASC_NODE": 101.1583, "ARG_OF_PERICENTER": 279.3746, "MEAN_ANOMALY": 80.6813, "EPHEMERIS_TYPE": 0, "CLASSIFICATION_TYPE": "U", "NORAD_CAT_ID": 66909, "ELEMENT_SET_NO": 999, "REV_AT_EPOCH": 290, "BSTAR": 0.00085685378, "MEAN_MOTION_DOT": 0.00053716, "MEAN_MOTION_DDOT": 0}, "tle": {"line1": "1 66909U 98067XV  25355.03120921  .00053716  00000+0  85685-3 0  9994", "line2": "2 66909  51.6312 101.1583 0003815 279.3746  80.6813 15.52677939  2905"}}, "geometry": {"type": "Point", "coordinates": [-109.24168397003444, 29.87414251526864]}}, {"type": "Feature", "properties": {"norad_id": 66910, "name": "1998-067XW", "group": "stations", "lat": 22.721385479433632, "lon": -101.56746421529569, "alt_km": 406.8540820675844, "timestamp": "2025-12-21T16:47:53.483199+00:00", "meta": {"OBJECT_NAME": "1998-067XW", "OBJECT_ID": "1998-067XW", "EPOCH": "2025-12-21T00:42:22.362336", "MEAN_MOTION": 15.52668327, "ECCENTRICITY": 0.00041762, "INCLINATION": 51.6309, "RA_OF_ASC_NODE": 101.1459, "ARG_OF_PERICENTER": 252.7985, "MEAN_ANOMALY": 107.2548, "EPHEMERIS_TYPE": 0, "CLASSIFICATION_TYPE": "U", "NORAD_CAT_ID": 66910, "ELEMENT_SET_NO": 999, "REV_AT_EPOCH": 290, "BSTAR": 0.00074556419, "MEAN_MOTION_DOT": 0.00046622, "MEAN_MOTION_DDOT": 0}, "tle": {"line1": "1 66910U 98067XW  25355.02942549  .00046622  00000+0  74556-3 0  9996", "line2": "2 66910  51.6309 101.1459 0004176 252.7985 107.2548 15.52668327  2908"}}, "geometry": {"type": "Point", "coordinates": [-101.56746421529569, 22.721385479433632]}}]}